IRIDIUM 106             
1 41917U 17003A   24253.03899756  .00001091  00000+0  38260-3 0  9998
2 41917  86.4052 358.5427 0001697 116.1706 243.9664 14.34212990400595
IRIDIUM 103             
1 41918U 17003B   24253.02630993  .00001277  00000+0  44871-3 0  9995
2 41918  86.4047 358.4513 0001843  82.2985 277.8420 14.34216322400623
IRIDIUM 109             
1 41919U 17003C   24253.17220042  .00000159  00000+0  49653-4 0  9994
2 41919  86.4030 358.4415 0002483  86.1796 273.9683 14.34216682400628
IRIDIUM 102             
1 41920U 17003D   24252.72187515  .00000210  00000+0  67808-4 0  9993
2 41920  86.4031 358.5664 0002210  94.8628 265.2820 14.34217143400626
IRIDIUM 105             
1 41921U 17003E   24252.76232283  .00001063  00000+0  37267-3 0  9993
2 41921  86.4006 327.0031 0002012  93.5956 266.5470 14.34213197402484
IRIDIUM 104             
1 41922U 17003F   24252.80432924  .00000050  00000+0  10653-4 0  9999
2 41922  86.4034 358.5646 0002385  84.5180 275.6288 14.34217257400622
IRIDIUM 114             
1 41923U 17003G   24252.81067293  .00000304  00000+0  10132-3 0  9997
2 41923  86.4033 358.5477 0001830  98.8094 261.3309 14.34217432400609
IRIDIUM 108             
1 41924U 17003H   24252.90872680  .00001173  00000+0  41167-3 0  9999
2 41924  86.3999 326.8614 0002076  96.6183 263.5250 14.34223379402472
